[{"OBJECT_NAME":"STARLINK-35168","OBJECT_ID":"2025-198T","EPOCH":"2026-03-09T20:18:33.770880","MEAN_MOTION":15.30205232,"ECCENTRICITY":8.304e-5,"INCLINATION":53.1576,"RA_OF_ASC_NODE":270.2991,"ARG_OF_PERICENTER":85.4379,"MEAN_ANOMALY":274.6717,"EPHEMERIS_TYPE":0,"CLASSIFICATION_TYPE":"U","NORAD_CAT_ID":65509,"ELEMENT_SET_NO":999,"REV_AT_EPOCH":2864,"BSTAR":0.001003799,"MEAN_MOTION_DOT":0.00029493,"MEAN_MOTION_DDOT":0},{"OBJECT_NAME":"OBJECT N","OBJECT_ID":"2019-093N","EPOCH":"2026-03-09T21:41:56.087232","MEAN_MOTION":15.29897693,"ECCENTRICITY":0.0006278,"INCLINATION":98.0505,"RA_OF_ASC_NODE":226.9456,"ARG_OF_PERICENTER":33.3806,"MEAN_ANOMALY":326.7828,"EPHEMERIS_TYPE":0,"CLASSIFICATION_TYPE":"U","NORAD_CAT_ID":44891,"ELEMENT_SET_NO":999,"REV_AT_EPOCH":33957,"BSTAR":0.0010567776,"MEAN_MOTION_DOT":0.00030617,"MEAN_MOTION_DDOT":0}]
